#aV2023  4 25  0  0  0.00000000     288 DD+AD WGS84 FIT  NGA
## 2259 172800.00000000   300.00000000 60059 0.0000000000000
+   32     1  2  3  4  5  6  7  8  9 10 11 12 13 14 15 16 17
+         18 19 20 21 22 23 24 25 26 27 28 29 30 31 32  0  0
+          0  0  0  0  0  0  0  0  0  0  0  0  0  0  0  0  0
+          0  0  0  0  0  0  0  0  0  0  0  0  0  0  0  0  0
+          0  0  0  0  0  0  0  0  0  0  0  0  0  0  0  0  0
++         2  2  2  2  2  2  2  2  2  2  2  2  2  2  2  2  2
++         2  2  2  2  2  2  2  2  2  2  2  2  2  2  2  0  0
++         0  0  0  0  0  0  0  0  0  0  0  0  0  0  0  0  0
++         0  0  0  0  0  0  0  0  0  0  0  0  0  0  0  0  0
++         0  0  0  0  0  0  0  0  0  0  0  0  0  0  0  0  0
%c cc cc ccc ccc cccc cccc cccc cccc ccccc ccccc ccccc ccccc
%c cc cc ccc ccc cccc cccc cccc cccc ccccc ccccc ccccc ccccc
%f  0.0000000  0.000000000  0.00000000000  0.000000000000000
%f  0.0000000  0.000000000  0.00000000000  0.000000000000000
%i    0    0    0    0      0      0      0      0         0
%i    0    0    0    0      0      0      0      0         0
/*      NGA, ST. LOUIS,MO.                                  
/*   EPHEMERIS COMPUTED FROM 2 DAYS OF DATA                 
/*   EPOCHA v8 SMOOTHER                                     
/*   G2139 IERS2010 SATIGS SATAPC                           
*  2023  4 25 18 25  0.00000000
P  1  16341.691410   4488.754913  20219.398948    190.267423                    
V  1   9703.876068  24389.976496 -12703.880715     -0.031358                    
P  2  -3812.594886  18826.255511 -17989.080784   -602.503626                    
V  2 -12669.608047 -20123.179017 -17620.272535      0.037488                    
P  3  19148.284936  -7254.271727  16721.294666   -320.382706                    
V  3 -11331.050212  18320.675133  20881.993304      0.095853                    
P  4  26043.013229   -263.529041  -5495.421015     25.684843                    
V  4   6549.887633   3524.642627  30691.036859      0.094036                    
P  5 -12244.445273  -9014.004335 -21946.793279   -124.786673                    
V  5  15169.835773 -22869.956475   1054.126156     -0.014605                    
P  6  -3908.115555 -24481.422806   9453.575443    587.738237                    
V  6   6406.487233  10200.441339  29349.515081      0.006851                    
P  7  11065.127404 -11503.489328 -20700.552795    193.143605                    
V  7  12081.905175  24679.658744  -7583.051758     -0.087893                    
P  8  24991.140763   6752.835539  -6875.409994   -119.464610                    
V  8  -8705.294817   1743.104929 -29853.169352     -0.017856                    
P  9  20629.162959  -8581.838024 -14463.637606   -172.425220                    
V  9  18004.969380   3648.972231  23587.472761      0.080863                    
P 10  -9608.264370  23137.860373   8510.515735    -34.341760                    
V 10  -8074.480243   7283.079938 -29829.733476     -0.015934                    
P 11 -12523.955283 -22923.537158  -4907.477853   -174.713753                    
V 11    151.429881  -6742.695226  31020.148652     -0.130854                    
P 12 -19059.370050   3581.890948  17827.102490   -368.335201                    
V 12  13633.964333 -18872.690433  18169.499557     -0.046644                    
P 13 -19753.447773 -13375.353789 -12064.622750    510.987515                    
V 13  14987.288553   1685.977082 -26599.204103      0.054784                    
P 14  12469.983832 -22685.607231   5597.206487     36.329486                    
V 14   6897.184191  -3689.420420 -30507.675441      0.120486                    
P 15 -25588.724580  -4152.149116  -6846.810140     33.869887                    
V 15   7958.684001  -3533.917963 -29315.026493      0.034236                    
P 16   9045.834588  12606.743037 -21816.608918   -506.136257                    
V 16 -18117.141543  20051.153658   4579.395926      0.029312                    
P 17   7131.984421 -13899.271118  21922.776952    712.227285                    
V 17  26346.955203   4720.601161  -5589.349775      0.016830                    
P 18  -8478.174208  15040.229660 -20139.851865   -239.766951                    
V 18 -10954.149064 -23137.966084 -12812.589142     -0.163401                    
P 19  -3571.313355 -15451.959312  21126.535926    308.483026                    
V 19  26775.303088   5175.859563   7939.419812      0.050851                    
P 20  -6272.264038 -17744.069409 -18783.448717    437.031411                    
V 20  11920.426478 -20763.613305  15409.670165     -0.021218                    
P 21  18942.284247  12089.678243  15354.966209    154.096942                    
V 21   7683.775927  16523.917492 -22510.639624     -0.001475                    
P 22   7054.330424  15905.615674  20561.017590    470.520892                    
V 22 -24785.276060  -3803.605775  11544.501417      0.066701                    
P 23 -16688.572412  20250.037401  -3543.954949     19.391110                    
V 23    462.680164  -5151.298821 -31708.650472      0.027551                    
P 24 -18727.867948  -7811.687996  16991.826357   -165.443125                    
V 24  -9007.891259 -20381.064012 -18488.214215     -0.143479                    
P 25 -19290.100459  14568.503810  10378.786073    438.283208                    
V 25   5506.407116 -12937.419659  27826.488529      0.027928                    
P 26     -6.301429  21528.312553 -15449.215781    241.468845                    
V 26 -12708.158586  15195.997669  21681.138208     -0.003421                    
P 27  17326.598720  12826.287127 -16033.961103     50.994621                    
V 27 -19769.723876   -516.155638 -21714.285934     -0.083251                    
P 28   3255.237203  23975.290945  10937.716290     70.387770                    
V 28  -8296.631353 -11439.572573  27474.769900      0.052419                    
P 29 -23395.524632   4040.175862 -12051.501125   -596.999216                    
V 29 -14583.918532  -4531.724542  26832.581213     -0.015807                    
P 30   2845.681724 -21415.903540 -15163.647618   -520.566795                    
V 30  10359.952932  16892.842734 -22022.124823      0.019522                    
P 31   8629.820285  24744.466131   2315.193293   -214.769438                    
V 31  -4354.668226  -1626.377021  31724.272082     -0.008268                    
P 32  -3213.516539  15060.197576  21810.199703   -460.837957                    
V 32 -27139.028216  -2836.379559  -2251.571057     -0.097579                    
EOF
